NORAD_CAT_ID,EPOCH,MEAN_MOTION,ECCENTRICITY,INCLINATION,RA_OF_ASC_NODE,ARG_OF_PERICENTER,MEAN_ANOMALY,APOAPSIS,PERIAPSIS,BSTAR,COUNTRY_CODE,RCS_SIZE,NAME,LINE1,LINE2
25613,2025-08-07T07:37:33.766752,13.63831123,0.0030379,100.4692,344.9603,127.6263,260.6445,1044.284,999.323,0.0023871,US,SMALL,0 NIMBUS 2 DEB,1 25613U 66040F   25219.31775193  .00001851  00000-0  23871-2 0  9996,2 25613 100.4692 344.9603 0030379 127.6263 260.6445 13.63831123896785
25614,2025-08-07T10:14:22.742304,13.6143532,0.0059101,100.5035,21.4443,139.0194,278.1906,1074.268,986.697,0.0020861,US,SMALL,0 NIMBUS 2 DEB,1 25614U 66040G   25219.42665211  .00001561  00000-0  20861-2 0  9992,2 25614 100.5035  21.4443 0059101 139.0194 278.1906 13.61435320428145
25655,2025-08-09T10:11:23.501184,15.18209049,0.0032126,97.4817,201.3023,243.3418,116.4525,533.388,489.122,0.0002256,CIS,SMALL,0 SL-3 DEB,1 25655U 88032D   25221.42457756  .00004605  00000-0  22560-3 0  9999,2 25655  97.4817 201.3023 0032126 243.3418 116.4525 15.18209049 19240
25675,2025-08-09T07:46:21.909216,8.33910311,0.356843,28.9701,74.2657,100.1852,301.1904,7559.376,228.383,0.015869,US,MEDIUM,0 USA 142 DEB,1 25675U 99017E   25221.32386469  .00795877  00000-0  15869-1 0  9997,2 25675  28.9701  74.2657 3568430 100.1852 301.1904  8.33910311107275
25684,2025-08-06T19:51:27.822240,5.0829426,0.5190928,64.869,78.2569,49.4443,345.4981,15327.676,493.388,0.0028692,CIS,SMALL,0 SL-12 DEB,1 25684U 85118X   25218.82740535  .00001698  00000-0  28692-2 0  9993,2 25684  64.8690  78.2569 5190928  49.4443 345.4981  5.08294260484577
25733,2025-08-09T01:46:58.878912,14.18566844,0.0014192,98.7248,265.3297,2.1422,357.9812,840.436,819.976,0.00021974,PRC,LARGE,0 CZ-4B DEB,1 25733U 99025D   25221.07429258  .00000412  00000-0  21974-3 0  9997,2 25733  98.7248 265.3297 0014192   2.1422 357.9812 14.18566844355838
25765,2025-08-08T17:19:11.866368,4.55187797,0.558056,19.9359,58.2645,43.4867,349.115,17583.944,418.731,0.0080524,FR,MEDIUM,0 ARIANE 1 DEB,1 25765U 79104G   25220.72166512  .00008094  00000-0  80524-2 0  9999,2 25765  19.9359  58.2645 5580560  43.4867 349.1150  4.55187797411039
25767,2025-08-09T00:39:32.741856,10.12649664,0.2583824,17.8226,104.0485,327.7324,18.7947,4978.291,314.684,0.004023,FR,MEDIUM,0 ARIANE 1 DEB,1 25767U 79104J   25221.02746229  .00058887  00000-0  40230-2 0  9999,2 25767  17.8226 104.0485 2583824 327.7324  18.7947 10.12649664777160
25768,2025-08-08T05:40:50.091168,4.82304144,0.5229177,17.6855,132.1825,280.4322,276.4389,16157.214,681.482,-0.0076205,FR,MEDIUM,0 ARIANE 1 DEB,1 25768U 79104K   25220.23669087 -.00001100  00000-0 -76205-2 0  9997,2 25768  17.6855 132.1825 5229177 280.4322 276.4389  4.82304144228807
25793,2025-08-07T22:55:52.680576,8.93206601,0.0130435,91.1268,205.4208,57.5854,303.7563,3562.07,3306.098,0.0096659,US,MEDIUM,0 MIDAS 3 DEB,1 25793U 61018F   25219.95547084  .00000029  00000-0  96659-2 0  9991,2 25793  91.1268 205.4208 0130435  57.5854 303.7563  8.93206601373988
25795,2025-08-09T13:22:49.304640,15.32505018,0.0050402,64.973,36.0765,344.337,15.6201,502.851,433.836,0.00036461,CIS,SMALL,0 COSMOS 1220 DEB,1 25795U 80089CJ  25221.55751510  .00011753  00000-0  36461-3 0  9994,2 25795  64.9730  36.0765 0050402 344.3370  15.6201 15.32505018524197
25804,2025-08-08T22:08:07.663488,7.86415787,0.3649219,64.8974,157.9769,98.4995,303.7034,8201.327,405.474,0.0064178,CIS,SMALL,0 SL-12 DEB,1 25804U 87079P   25220.92231092  .00018687  00000-0  64178-2 0  9997,2 25804  64.8974 157.9769 3649219  98.4995 303.7034  7.86415787604666
25805,2025-08-04T02:17:19.889376,5.0277932,0.5252205,65.0168,102.5213,56.6875,343.1683,15574.309,455.349,0.0076585,CIS,SMALL,0 SL-12 DEB,1 25805U 87079Q   25216.09536909  .00006265  00000-0  76585-2 0  9990,2 25805  65.0168 102.5213 5252205  56.6875 343.1683  5.02779320 37294
25809,2025-08-08T12:35:19.974336,7.12768243,0.4047927,65.0991,24.6507,82.002,320.9421,9643.808,410.324,0.0054887,CIS,SMALL,0 SL-12 DEB,1 25809U 87079U   25220.52453674  .00012800  00000-0  54887-2 0  9997,2 25809  65.0991  24.6507 4047927  82.0020 320.9421  7.12768243110581
25818,2025-08-09T01:52:56.295840,9.15975398,0.2772442,46.2662,113.2124,71.1686,43.9941,5945.909,595.687,0.10047,CIS,MEDIUM,0 SL-12 DEB,1 25818U 89101Q   25221.07842935  .00078728  00000-0  10047+0 0  9996,2 25818  46.2662 113.2124 2772442  71.1686  43.9941  9.15975398781465
25822,2025-08-08T14:47:10.723776,2.53970591,0.6731517,7.7201,184.4916,238.5461,32.55,31589.616,1038.822,0.0,FR,MEDIUM,0 ARIANE 1 DEB,1 25822U 84023D   25220.61609634  .00000027  00000-0  00000-0 0  9991,2 25822   7.7201 184.4916 6731517 238.5461  32.5500  2.53970591246659
25825,2025-08-07T15:36:36.174816,13.68163512,0.0047931,100.3193,272.7486,233.815,258.1378,1041.567,970.78,0.0024808,US,SMALL,0 NIMBUS 2 DEB,1 25825U 66040H   25219.65041869  .00002081  00000-0  24808-2 0  9991,2 25825 100.3193 272.7486 0047931 233.8150 258.1378 13.68163512899177
25838,2025-08-03T16:08:14.094240,1.9821219,0.625664,67.9371,99.7739,0.6577,0.0188,37140.88,3642.837,0.0,CIS,MEDIUM,0 COSMOS 1285 DEB,1 25838U 81071G   25215.67238535 -.00000082  00000-0  00000-0 0  9998,2 25838  67.9371  99.7739 6256640   0.6577   0.0188  1.98212190 81873
25839,2025-07-28T15:00:55.329696,1.98315785,0.6519219,67.0403,88.0639,8.8299,268.9025,37828.402,2936.668,0.0,CIS,MEDIUM,0 COSMOS 1285 DEB,1 25839U 81071H   25209.62564039  .00000614  00000-0  00000+0 0  9997,2 25839  67.0403  88.0639 6519219   8.8299 268.9025  1.98315785205727
25840,2025-08-05T14:20:48.992928,1.9802201,0.5954876,69.0792,104.7447,352.0415,250.4963,36360.4,4457.592,0.0,CIS,MEDIUM,0 COSMOS 1285 DEB,1 25840U 81071J   25217.59778927  .00000445  00000-0  00000+0 0  9999,2 25840  69.0792 104.7447 5954876 352.0415 250.4963  1.98022010202821
25842,2025-08-04T03:32:02.953824,3.91913762,0.5196327,65.3354,249.0759,108.8642,0.1189,19445.267,1784.836,0.0,US,SMALL,0 ATLAS 75E DEB,1 25842U 83072C   25216.14725641  .00000064  00000-0  00000-0 0  9997,2 25842  65.3354 249.0759 5196327 108.8642   0.1189  3.91913762 63073
25844,2025-08-08T15:33:17.866080,3.14545861,0.6560344,7.2937,191.9006,204.8332,98.805,26206.676,389.873,0.00092868,FR,MEDIUM,0 ARIANE 44LP DEB,1 25844U 89062H   25220.64812345  .00000662  00000-0  92868-3 0  9992,2 25844   7.2937 191.9006 6560344 204.8332  98.8050  3.14545861273952
25862,2025-08-08T21:32:25.740096,14.43542375,0.015752,97.7058,223.9416,9.0943,351.3043,859.053,634.588,0.00030259,CIS,SMALL,0 SL-16 DEB,1 25862U 99039C   25220.89752014  .00001148  00000-0  30259-3 0  9996,2 25862  97.7058 223.9416 0157520   9.0943 351.3043 14.43542375367736
25863,2025-08-08T23:26:37.036320,14.46122535,0.0149798,98.404,289.8429,70.7299,104.7101,844.946,631.74,0.00019675,CIS,SMALL,0 SL-16 DEB,1 25863U 99039D   25220.97681755  .00000758  00000-0  19675-3 0  9994,2 25863  98.4040 289.8429 0149798  70.7299 104.7101 14.46122535369965
25864,2025-08-08T18:32:44.081088,14.40403053,0.0163226,98.5565,295.6014,342.9319,144.5604,873.636,640.702,9.8132e-05,CIS,SMALL,0 SL-16 DEB,1 25864U 99039E   25220.77273242  .00000312  00000-0  98132-4 0  9993,2 25864  98.5565 295.6014 0163226 342.9319 144.5604 14.40403053364958
25865,2025-08-08T18:18:54.197856,14.3641055,0.0178092,97.8242,153.7424,313.4496,77.0094,897.694,643.075,0.00015516,CIS,SMALL,0 SL-16 DEB,1 25865U 99039F   25220.76312729  .00000500  00000-0  15516-3 0  9990,2 25865  97.8242 153.7424 0178092 313.4496  77.0094 14.36410550361087
25882,2025-08-08T16:49:47.472960,13.9378537,0.0675948,68.3733,15.3848,355.1245,4.347,1408.402,422.392,0.00021648,PRC,SMALL,0 CZ-1 DEB,1 25882U 70034D   25220.70124390  .00002011  00000-0  21648-3 0  9994,2 25882  68.3733  15.3848 0675948 355.1245   4.3470 13.93785370279372
25904,2025-08-08T16:23:30.392160,11.10539468,0.2207283,34.4978,332.7674,179.4627,180.9057,3981.192,234.909,0.00051357,US,SMALL,0 DELTA 2 DEB,1 25904U 94016D   25220.68299065  .00037810  17777-6  51357-3 0  9994,2 25904  34.4978 332.7674 2207283 179.4627 180.9057 11.10539468857625
25928,2025-08-09T09:13:03.615168,2.9145299,0.6632432,7.7641,73.9613,132.9921,91.6909,28055.16,593.573,0.007521,FR,MEDIUM,0 ARIANE 44LP DEB,1 25928U 91015J   25221.38406962  .00000814  00000-0  75210-2 0  9992,2 25928   7.7641  73.9613 6632432 132.9921  91.6909  2.91452990290056
25936,2025-08-08T14:34:19.629696,3.14872443,0.6549703,30.8328,12.8298,69.1866,346.679,26163.218,406.116,0.011579,PRC,MEDIUM,0 CZ-3 DEB,1 25936U 86010D   25220.60717164  .00007261  00000-0  11579-1 0  9993,2 25936  30.8328  12.8298 6549703  69.1866 346.6790  3.14872443 12780
25992,2025-08-08T15:48:54.461088,14.46303102,0.000591,98.1972,237.9375,176.0905,302.686,741.956,733.545,0.00075994,US,SMALL,0 DMSP 5D-2 F15 DEB,1 25992U 99067B   25220.65896367  .00002683  00000-0  75994-3 0  9995,2 25992  98.1972 237.9375 0005910 176.0905 302.6860 14.46303102338748
25993,2025-08-08T20:42:51.352704,14.51612355,0.000351,98.3155,204.3705,150.0168,249.5606,722.881,717.898,0.0012121,US,SMALL,0 DMSP 5D-2 F15 DEB,1 25993U 99067C   25220.86309436  .00004815  00000-0  12121-2 0  9996,2 25993  98.3155 204.3705 0003510 150.0168 249.5606 14.51612355338584
25997,2025-08-09T05:47:07.348992,14.36721098,0.0125342,99.9739,150.1174,184.4908,175.5159,858.943,679.766,0.00094775,US,SMALL,0 DELTA 1 DEB,1 25997U 75052BA  25221.24105728  .00002998  00000-0  94775-3 0  9995,2 25997  99.9739 150.1174 0125342 184.4908 175.5159 14.36721098626569
25998,2025-08-08T21:21:15.785856,12.53616951,0.0037675,82.6796,10.8279,74.7369,43.6207,1478.895,1419.914,-7.7069e-05,CIS,MEDIUM,0 SL-14 DEB,1 25998U 91068H   25220.88976604 -.00000002  00000-0 -77069-4 0  9993,2 25998  82.6796  10.8279 0037675  74.7369  43.6207 12.53616951173084
25999,2025-08-08T16:38:45.752640,12.61895872,0.0061561,82.6986,304.9837,46.0494,106.5938,1463.107,1367.155,0.0002376,CIS,SMALL,0 SL-14 DEB,1 25999U 91068J   25220.69358510  .00000054  00000-0  23760-3 0  9996,2 25999  82.6986 304.9837 0061561  46.0494 106.5938 12.61895872189015
